id,name,category,description,location,address,phone,email,website,english_fluency,verified,featured,featured_tier,base_distance,notes,image_url,status,created_at,updated_at,bases_served,latitude,longitude,google_maps_url,subcategory,is_on_base
0b0b0b0b-0c0c-4d0d-0e0e-0f0f0f0f0f0f,NKD Ramstein,shopping,Discount fashion retailer near Ramstein.,"Ramstein-Miesenbach, Rhineland-Palatinate",,,,,fluent,false,false,,,,,active,2025-10-29 00:00:00+00,2025-10-29 00:00:00+00,"[""ramstein""]",,,,clothing,false
0b1c2d3e-4f5a-4b6c-7d8e-9f0a1b2c3d4e,Hans im Glück,restaurants,Burger restaurant in Kaiserslautern.,"Kaiserslautern, Rhineland-Palatinate",,,,,fluent,false,false,,,,,active,2025-10-29 00:00:00+00,2025-10-29 00:00:00+00,"[""kaiserslautern""]",,,,american-food,false
0c878ec6-5838-41e1-8d1e-2adbd4c5db50,GTÜ Schönaich,automotive,Vehicle inspection and TÜV services near USAG Stuttgart.,"Schönaich, Baden-Württemberg",,,,,conversational,false,false,,,,,active,2025-10-24 23:09:34.792943+00,2025-10-25 10:30:47.375705+00,"[""stuttgart""]",,,,inspection-stations,false
0d0d0d0d-0e0e-4f0f-0a0a-0b0b0b0b0b0b,Königsbau Passagen,shopping,Shopping arcade in Stuttgart city center.,"Stuttgart, Baden-Württemberg",,,,,fluent,false,false,,,,,active,2025-10-29 00:00:00+00,2025-10-29 00:00:00+00,"[""stuttgart""]",,,,malls,false
0d0e0f0a-0b0c-4d0e-0f0a-0b0c0d0e0f0a,H. Gugel GmbH,shopping,Local retail store.,"Grafenwöhr, Bavaria",,,,,conversational,false,false,,,,,active,2025-10-29 00:00:00+00,2025-10-29 00:00:00+00,"[""grafenwoehr""]",,,,general,false
0d1e2f3a-4b5c-4d6e-7f8a-9b0c1d2e3f4a,King's Palace,restaurants,Restaurant in Vaihingen.,"Vaihingen, Baden-Württemberg",,,,,conversational,false,false,,,,,active,2025-10-29 00:00:00+00,2025-10-29 00:00:00+00,"[""stuttgart""]",,,,international,false
0d4d11e9-8ce4-46ac-bbbb-39f74e173ff9,American Business Center - Grafenwöhr,automotive,"Multiple locations: Outside Vilseck main gate, Grafenwöhr Gate 3 & Gate 6. Full auto sales and service for military.",Grafenwöhr,"Locations at Vilseck main gate, Graf Gate 3 & 6",+49 6371 597 4719,info@american-business-center.com,,fluent,false,false,,,Multiple convenient locations,,active,2025-10-30 23:40:37.272891+00,2025-10-31 23:03:19.455584+00,"[""grafenwoehr""]",,,,Car Sales/Service,false
0eed45f1-68fb-4756-8949-7def46e93a41,The Used Car Guys - Stuttgart,automotive,Full-service used car dealership specializing in quality pre-owned vehicles for American military.,"Stuttgart area, Baden-Württemberg","Robert-Bosch-Straße 6, 71101 Schönaich",+49 151 6522 7520,stuttgart@usedcarguys.net,https://www.usedcarguys.net,fluent,true,true,,"4km from the Panzer gate. ",,UCG-Stuttgart.jpg,active,2025-10-25 09:46:20.926948+00,2025-10-26 13:31:04.865287+00,"[""stuttgart""]",48.66440000,9.07140000,"https://maps.google.com/?q=48.6644,9.0714",car-dealerships,false
0f0f0f0f-0a0a-4b0b-0c0c-0d0d0d0d0d0d,Intersport Schlemmer,shopping,Sports equipment store.,"Kaiserslautern, Rhineland-Palatinate",,,,,fluent,false,false,,,,,active,2025-10-29 00:00:00+00,2025-10-29 00:00:00+00,"[""kaiserslautern""]",,,,sports,false
0f1a2b3c-4d5e-4f6a-7b8c-9d0e1f2a3b4c,"King's Diner -Döner, Pizza, Burger",restaurants,Diner near Spangdahlem with multiple cuisines.,"Spangdahlem, Rhineland-Palatinate",,,,,fluent,false,false,,,,,active,2025-10-29 00:00:00+00,2025-10-29 00:00:00+00,"[""spangdahlem""]",,,,american-food,false
10411bf7-178f-43b2-8647-dc52be961a35,Primary Care Wiesbaden - Dr. Prengel-Baumgartner,healthcare,"General practitioner practice specializing in primary care, run by a US/German dual citizen physician. Located in the city center and welcomes English-speaking patients.","Wiesbaden, Hesse","Neugasse 9, 65183 Wiesbaden",+49 611 97136700,,https://primary-care-wiesbaden.de/,fluent,true,true,,,US/German doctor; well-known by USAG Wiesbaden community.,,active,2025-10-25 23:41:30.513523+00,2025-10-29 19:31:58.438977+00,"[""wiesbaden""]",,,https://maps.app.goo.gl/N85U1Y7m9dE77t2n7,general-practitioners,false
10dd0ee3-25b0-4b65-b54d-6288a056c023,Stroell's Hairteam,personal-services,English-speaking hair salon in Vilseck serving military community.,Vilseck,Vilseck,,,,fluent,false,false,,,English-speaking stylists,,active,2025-10-30 23:40:37.272891+00,2025-10-31 23:03:19.455584+00,"[""grafenwoehr""]",,,,Hair Salon,false
11d6f780-1d99-45d0-a752-f5696e0abee1,Auto Detailing Service Needed - Kaiserslautern,automotive,Know a great English-speaking auto detailer in the Kaiserslautern area? Help us out!,"Kaiserslautern, Rhineland-Palatinate",,,,,fluent,false,false,,,Seeking community recommendations for auto detailing services,,pending,2025-10-24 23:09:34.792943+00,2025-10-24 23:09:34.792943+00,"[""kaiserslautern""]",,,,mechanics,false
150d2ac3-fcaa-428a-8b68-b28a3dc4faf7,English-Speaking Doctor Needed - Wiesbaden,healthcare,Know a great English-speaking doctor in the Wiesbaden area? Help us out!,"Wiesbaden, Hesse",,,,,fluent,false,false,,,PRIORITY: Seeking recommendations for English-speaking medical care,,pending,2025-10-24 23:09:34.792943+00,2025-10-24 23:09:34.792943+00,"[""wiesbaden""]",,,,general-practitioners,false
15fde11c-9907-4c30-a469-246269061b3f,Joseph L. Jordan Attorney at Law,legal,Military defense attorney serving USAG Kaiserslautern community.,Kaiserslautern,Kaiserslautern area,,,,fluent,false,false,,,Military defense specialist,,active,2025-10-30 23:40:37.272891+00,2025-10-31 23:03:19.455584+00,"[""ramstein"",""kaiserslautern""]",,,,Military Defense,false
1a1a1a1a-1b1b-4c1c-1d1d-1e1e1e1e1e1e,Breuninger,shopping,Luxury department store in Sindelfingen.,"Sindelfingen, Baden-Württemberg",,,,,fluent,false,false,,,,,active,2025-10-29 00:00:00+00,2025-10-29 00:00:00+00,"[""stuttgart""]",,,,department-stores,false
1a1b1c1d-1e1f-4a1b-1c1d-1e1f1a1b1c1d,Woolworth,shopping,General merchandise store.,"Kaiserslautern, Rhineland-Palatinate",,,,,fluent,false,false,,,,,active,2025-10-29 00:00:00+00,2025-10-29 00:00:00+00,"[""kaiserslautern""]",,,,general,false
1a2b3c4d-5e6f-4a7b-8c9d-0e1f2a3b4c5d,Pops Burgers,restaurants,American-style burger restaurant in Sindelfingen.,"Sindelfingen, Baden-Württemberg",,,,,fluent,false,false,,,Popular burger spot,,active,2025-10-29 00:00:00+00,2025-10-29 00:00:00+00,"[""stuttgart""]",,,,american-food,false
1a2b3c4d-5e6f-4a7b-8c9d-0e1f2a3b4c5e,Caribbean Grill Restaurant,restaurants,Caribbean restaurant near Grafenwöhr.,"Grafenwöhr, Bavaria",,,,,fluent,false,false,,,,,active,2025-10-29 00:00:00+00,2025-10-29 00:00:00+00,"[""grafenwoehr""]",,,,international,false
1c1c1c1c-1d1d-4e1e-1f1f-1a1a1a1a1a1a,Möbelhaus und Schreinerei Schmitt,shopping,Furniture store near Ramstein.,"Ramstein-Miesenbach, Rhineland-Palatinate",,,,,fluent,false,false,,,,,active,2025-10-29 00:00:00+00,2025-10-29 00:00:00+00,"[""ramstein""]",,,,furniture,false
1c2d3e4f-5a6b-4c7d-8e9f-0a1b2c3d4e5f,L'Osteria Italian Restaurant,restaurants,Italian restaurant in Kaiserslautern.,"Kaiserslautern, Rhineland-Palatinate",,,,,fluent,false,false,,,,,active,2025-10-29 00:00:00+00,2025-10-29 00:00:00+00,"[""kaiserslautern""]",,,,international,false
1d75b29f-7c6c-4724-84d0-b878c86969ed,Gonzalez & Waddington,legal,Military criminal defense lawyers. Specializes in UCMJ defense and court-martial representation.,Kaiserslautern,Kaiserslautern area,,,,fluent,false,false,,,National military defense firm,,active,2025-10-30 23:40:37.272891+00,2025-10-31 23:03:19.455584+00,"[""ramstein"",""kaiserslautern""]",,,,Military Defense,false
1e1e1e1e-1f1f-4a1a-1b1b-1c1c1c1c1c1c,Das Gerber,shopping,Modern shopping center in Stuttgart.,"Stuttgart, Baden-Württemberg",,,,,fluent,false,false,,,,,active,2025-10-29 00:00:00+00,2025-10-29 00:00:00+00,"[""stuttgart""]",,,,malls,false
1e1f1a1b-1c1d-4e1f-1a1b-1c1d1e1f1a1b,Kolibri Schlauchboote Vertrieb,shopping,Boat and outdoor equipment.,"Grafenwöhr, Bavaria",,,,,conversational,false,false,,,,,active,2025-10-29 00:00:00+00,2025-10-29 00:00:00+00,"[""grafenwoehr""]",,,,specialty,false
1e2f3a4b-5c6d-4e7f-8a9b-0c1d2e3f4a5b,Big Emma Brauhaus,restaurants,German brewhouse near Ramstein Air Base.,"Ramstein-Miesenbach, Rhineland-Palatinate",,,,,fluent,false,false,,,,,active,2025-10-29 00:00:00+00,2025-10-29 00:00:00+00,"[""ramstein""]",,,,international,false
21bdeb3e-98de-4f33-b971-ac4ac66a6f1f,Auto Detailing Service Needed - Wiesbaden,automotive,Know a great English-speaking auto detailer in the Wiesbaden area? Help us out!,"Wiesbaden, Hesse",,,,,fluent,false,false,,,Seeking community recommendations for auto detailing services,,pending,2025-10-24 23:09:34.792943+00,2025-10-24 23:09:34.792943+00,"[""wiesbaden""]",,,,mechanics,false
242346ea-58d5-46d0-85f3-8a2bb9ed6de5,American Business Center - Spangdahlem,automotive,"Full-service auto center offering tax-free military discounts, custom builds, and VIP delivery service.",Ramstein,"Ziegelhütte 2, 66877 Ramstein",+49 6371 597 4719,info@american-business-center.com,,fluent,false,false,,,"Tax-free purchases, custom orders",,active,2025-10-30 23:40:37.272891+00,2025-10-31 23:03:19.455584+00,"[""spangdahlem"",""ramstein"",""kaiserslautern""]",,,,Car Sales/Service,false
271d0a4f-7662-4adb-bbf5-ca811f5362a5,Auto Detailing Service Needed - Grafenwöhr,automotive,Know a great English-speaking auto detailer in the Grafenwöhr area? Help us out!,"Grafenwöhr, Bavaria",,,,,fluent,false,false,,,Seeking community recommendations for auto detailing services,,pending,2025-10-24 23:09:34.792943+00,2025-10-24 23:09:34.792943+00,"[""grafenwoehr""]",,,,mechanics,false
2743bc21-b948-4c25-9404-2ba013a49eef,Need Verified GP - Grafenwöhr,healthcare,"Seeking a verified, off-base English-speaking general practitioner to serve the USAG Grafenwöhr community.","Grafenwöhr, Bavaria",,,,,fluent,false,false,,,PRIORITY: Need verified English-speaking GP for Grafenwöhr area.,,pending,2025-10-25 23:41:30.513523+00,2025-10-29 19:31:58.438977+00,"[""grafenwoehr""]",,,,general-practitioners,false
27536f24-1b06-48cb-8b5a-031c9b04a017,Immobilien4you,real-estate,Founded by Anne S. Neumann and Frank (former NATO soldier). Specializes in military family relocations and SOFA housing.,Kaiserslautern,Kaiserslautern area,,,,fluent,false,false,,,"Owner is former military, understands SOFA requirements",,active,2025-10-30 23:40:37.272891+00,2025-10-31 23:03:19.455584+00,"[""ramstein"",""kaiserslautern""]",,,,Housing Agency,false
29913a90-381c-45f9-bb14-e22b16c606b0,Placeholder Home Services,home-services,,Stuttgart,,,,,,true,false,,,,,active,2025-10-31 14:55:30.934438+00,2025-10-31 23:03:19.455584+00,"[""stuttgart""]",,,,,false
2b2b2b2b-2c2c-4d2d-2e2e-2f2f2f2f2f2f,Mercaden Mall,shopping,Shopping mall in Böblingen.,"Böblingen, Baden-Württemberg",,,,,fluent,false,false,,,,,active,2025-10-29 00:00:00+00,2025-10-29 00:00:00+00,"[""stuttgart""]",,,,malls,false
2b2c2d2e-2f2a-4b2c-2d2e-2f2a2b2c2d2e,Action,shopping,Discount variety store.,"Kaiserslautern, Rhineland-Palatinate","Fruchthallstraße 29, 67655 Kaiserslautern",+49 0211 30146100,https://www.action.com/de-de/kundendienstseite/kontaktseite/,https://www.action.com/de-de/,basic,true,false,,5.4km from Kaiserslautern Army Depot,,,active,2025-10-29 00:00:00+00,2025-10-29 21:39:32.394397+00,"[""kaiserslautern""]",,,,general,false
2b3c4d5e-6f7a-4b8c-9d0e-1f2a3b4c5d6e,Dream Burgers,restaurants,Burger restaurant in Sindelfingen.,"Sindelfingen, Baden-Württemberg",,,,,basic,false,false,,,NO English spoken,,active,2025-10-29 00:00:00+00,2025-10-29 00:00:00+00,"[""stuttgart""]",,,,american-food,false
2b3c4d5e-6f7a-4b8c-9d0e-1f2a3b4c5d6f,Benjamin's Restaurant,restaurants,Restaurant near Grafenwöhr.,"Grafenwöhr, Bavaria",,,,,fluent,false,false,,,,,active,2025-10-29 00:00:00+00,2025-10-29 00:00:00+00,"[""grafenwoehr""]",,,,american-food,false
2d2d2d2d-2e2e-4f2f-2a2a-2b2b2b2b2b2b,Media Markt Kaiserslautern,shopping,Electronics retailer in Kaiserslautern.,"Kaiserslautern, Rhineland-Palatinate",,,,,fluent,false,false,,,,,active,2025-10-29 00:00:00+00,2025-10-29 00:00:00+00,"[""kaiserslautern""]",,,,electronics,false
2d3e4f5a-6b7c-4d8e-9f0a-1b2c3d4e5f6a,Cantina Mexicana,restaurants,Mexican restaurant in Kaiserslautern.,"Kaiserslautern, Rhineland-Palatinate",,,,,fluent,false,false,,,,,active,2025-10-29 00:00:00+00,2025-10-29 00:00:00+00,"[""kaiserslautern""]",,,,international,false
2f2f2f2f-2a2a-4b2b-2c2c-2d2d2d2d2d2d,Markthalle Stuttgart,shopping,Historic indoor market in Stuttgart.,"Stuttgart, Baden-Württemberg",,,,,fluent,false,false,,,Food market,,active,2025-10-29 00:00:00+00,2025-10-29 00:00:00+00,"[""stuttgart""]",,,,markets,false
2f3a4b5c-6d7e-4f8a-9b0c-1d2e3f4a5b6c,"Metaxa Ramstein, Greek Restaurant",restaurants,Greek restaurant near Ramstein.,"Ramstein-Miesenbach, Rhineland-Palatinate",,,,,fluent,false,false,,,,,active,2025-10-29 00:00:00+00,2025-10-29 00:00:00+00,"[""ramstein""]",,,,international,false
300af715-2196-490c-9a16-2c9bb5c29c91,"Court & Carpenter, PC",legal,"Military defense law firm. Lead attorney Stephen Carpenter Jr., LL.M. is fluent in German and English.",Kaiserslautern,"Sauerwiesen 2, Kaiserslautern-Siegelbach 67661",+49 176 2005 2265,,,fluent,false,false,,,Attorney fluent in German - helpful for SOFA issues,,active,2025-10-30 23:40:37.272891+00,2025-10-31 23:03:19.455584+00,"[""ramstein"",""kaiserslautern""]",,,,Military Defense,false
330d92b2-1b62-4444-b83b-25a6573f75b5,Suxul Friseur,personal-services,Hair salon in Weiden serving English-speaking military families.,Weiden,"Oberer Markt 16, 92637 Weiden",09617449482,,,conversational,false,false,,,"Near Grafenwöhr, English-speaking",,active,2025-10-30 23:40:37.272891+00,2025-10-31 23:03:19.455584+00,"[""grafenwoehr""]",,,,Hair Salon,false
36bbc58e-8cd3-40c7-9adc-a5d359bc8eeb,ProConCepT,real-estate,"Real estate and finance consulting with 30+ years experience. Owner Peter Sowade speaks perfect English. Helps Americans buy, sell, rent properties and secure financing.",Grafenwöhr,Grafenwöhr area,+49 9621 6767 0,,,fluent,false,false,,,"Owner has 30+ years experience, perfect English",,active,2025-10-30 23:40:37.272891+00,2025-10-31 23:03:19.455584+00,"[""grafenwoehr""]",,,,Housing Agency,false
3a3a3a3a-3b3b-4c3c-3d3d-3e3e3e3e3e3e,Primark,shopping,Budget fashion retailer in Stuttgart.,"Stuttgart, Baden-Württemberg",,,,,fluent,false,false,,,,,active,2025-10-29 00:00:00+00,2025-10-29 00:00:00+00,"[""stuttgart""]",,,,clothing,false
3a4b5c6d-7e8f-4a9b-0c1d-2e3f4a5b6c7d,Ishan's Gourmet Hot Wings,restaurants,Hot wings restaurant near Ramstein.,"Ramstein-Miesenbach, Rhineland-Palatinate",,,,,fluent,false,false,,,,,active,2025-10-29 00:00:00+00,2025-10-29 00:00:00+00,"[""ramstein""]",,,,american-food,false
3ae58192-5b3e-4687-a49b-8535cc876839,The Used Car Guys - Spangdahlem,automotive,Full-service dealership serving Spangdahlem Air Base.,"Spangdahlem, Rhineland-Palatinate","HillStr 45, 54529 Spangdahlem",06565 957 315,spangdahlem@usedcarguys.net,https://www.usedcarguys.net,fluent,true,true,,,,,active,2025-10-25 10:31:10.902141+00,2025-10-26 13:05:34.967908+00,"[""spangdahlem""]",49.97280000,6.69250000,"https://maps.google.com/?q=49.9728,6.6925",car-dealerships,false
3c3c3c3c-3d3d-4e3e-3f3f-3a3a3a3a3a3a,Stern Center,shopping,Shopping center in Sindelfingen.,"Sindelfingen, Baden-Württemberg",,,,,fluent,false,false,,,,,active,2025-10-29 00:00:00+00,2025-10-29 00:00:00+00,"[""stuttgart""]",,,,malls,false
3c3d3e3f-3a3b-4c3d-3e3f-3a3b3c3d3e3f,Mömaxx Möbelhaus Kaiserslautern,shopping,Discount furniture store.,"Kaiserslautern, Rhineland-Palatinate",,,,,fluent,false,false,,,,,active,2025-10-29 00:00:00+00,2025-10-29 00:00:00+00,"[""kaiserslautern""]",,,,furniture,false
3c4d5e6f-7a8b-4c9d-0e1f-2a3b4c5d6e7a,BAB Korean Restaurant,restaurants,Korean restaurant near Grafenwöhr.,"Grafenwöhr, Bavaria",,,,,fluent,false,false,,,,,active,2025-10-29 00:00:00+00,2025-10-29 00:00:00+00,"[""grafenwoehr""]",,,,international,false
3c4d5e6f-7a8b-4c9d-0e1f-2a3b4c5d6e7f,Corners,restaurants,Restaurant in Sindelfingen.,"Sindelfingen, Baden-Württemberg",,,,,conversational,false,false,,,,,active,2025-10-29 00:00:00+00,2025-10-29 00:00:00+00,"[""stuttgart""]",,,,international,false
3da7fb24-2369-4ffa-b2cd-161971fb8bfd,Flynn Family Medicine,healthcare,"American-run medical clinic providing family practice, pediatrics, and acute care. Directly serving the Ramstein Air Base and KMC community.","Ramstein-Miesenbach, Rhineland-Palatinate","Landstuhler Str. 20, 66877 Ramstein-Miesenbach",06371 495021,,https://www.flynnsmedical.com/,fluent,true,true,,,Excellent option for Ramstein/KMC. Direct insurance billing available.,,active,2025-10-25 23:41:30.513523+00,2025-10-29 19:31:58.438977+00,"[""ramstein"",""kaiserslautern""]",,,https://maps.app.goo.gl/3Q8U7z6T7E8zYwJRA,general-practitioners,false
3e3e3e3e-3f3f-4a3a-3b3b-3c3c3c3c3c3c,Saturn Kaiserslautern,shopping,Electronics and media store.,"Kaiserslautern, Rhineland-Palatinate",,,,,fluent,false,false,,,,,active,2025-10-29 00:00:00+00,2025-10-29 00:00:00+00,"[""kaiserslautern""]",,,,electronics,false
3e4f5a6b-7c8d-4e9f-0a1b-2c3d4e5f6a7b,Benji's Burrito Bistro,restaurants,Burrito restaurant in Kaiserslautern.,"Kaiserslautern, Rhineland-Palatinate",,,,,fluent,false,false,,,,,active,2025-10-29 00:00:00+00,2025-10-29 00:00:00+00,"[""kaiserslautern""]",,,,american-food,false
40649473-6501-446b-9194-4090424a3c27,American Medical Center - Landstuhl,healthcare,"Medical center founded to serve the Kaiserslautern Military Community (KMC) with Family Medicine, Radiology, and Sports Medicine. Located in nearby Landstuhl.","Landstuhl, Rhineland-Palatinate","Konrad-Adenauer-Straße 4, 66849 Landstuhl",+49 6371 495021,info@american-care.com,https://www.american-care.com/,fluent,true,false,,16km from the main gate of Kaiserslautern,Serves KMC; check for specific GP services vs specialist.,,active,2025-10-25 23:41:30.513523+00,2025-10-29 21:40:59.704562+00,"[""kaiserslautern"",""ramstein""]",,,https://maps.app.goo.gl/z6S889YqN4e7HjBw7,general-practitioners,false
406aa1ed-3b02-45bb-8649-029339f10a98,St David's School,education,British international school offering British curriculum with international flavor. Ages 3-11 years.,Ramstein,"Schulstrasse 4, Ramstein 66877",,,,fluent,false,false,,,"British curriculum, ages 3-11",,active,2025-10-30 23:40:37.272891+00,2025-10-31 23:03:19.455584+00,"[""ramstein""]",,,,International School,false
4402f262-a387-4643-9504-032c40db7021,TLA Ramstein (Ramstein-TLA.de),real-estate,"TLA services led by Dennis Hauf, Mira Schneider, Laura Heinle, Miguel Avalos. Includes vehicle rental and bi-weekly cleaning.",Ramstein,Ramstein area,,,https://ramstein-tla.de/,fluent,false,false,,,"Vehicle included with TLA, cleaning service",,active,2025-10-30 23:40:37.272891+00,2025-10-31 23:03:19.455584+00,"[""ramstein"",""kaiserslautern""]",,,,Temporary Lodging,false
4b4b4b4b-4c4c-4d4d-4e4e-4f4f4f4f4f4f,TK Maxx Stuttgart,shopping,Discount department store in Stuttgart.,"Stuttgart, Baden-Württemberg",,,,,fluent,false,false,,,,,active,2025-10-29 00:00:00+00,2025-10-29 00:00:00+00,"[""stuttgart""]",,,,department-stores,false
4b5c6d7e-8f9a-4b0c-1d2e-3f4a5b6c7d8e,Thai Thai Orchidee,restaurants,Thai restaurant near Ramstein.,"Ramstein-Miesenbach, Rhineland-Palatinate",,,,,fluent,false,false,,,,,active,2025-10-29 00:00:00+00,2025-10-29 00:00:00+00,"[""ramstein""]",,,,international,false
4d4d4d4d-4e4e-4f4f-4a4a-4b4b4b4b4b4b,Ikea Sindelfingen,shopping,Furniture and home goods store in Sindelfingen.,"Sindelfingen, Baden-Württemberg",,,,,fluent,false,false,,,,,active,2025-10-29 00:00:00+00,2025-10-29 00:00:00+00,"[""stuttgart""]",,,,furniture,false
4d4e4f4a-4b4c-4d4e-4f4a-4b4c4d4e4f4a,H & M Kaiserslautern,shopping,Fashion retailer.,"Kaiserslautern, Rhineland-Palatinate",,,,,fluent,false,false,,,,,active,2025-10-29 00:00:00+00,2025-10-29 00:00:00+00,"[""kaiserslautern""]",,,,clothing,false
4d5e6f7a-8b9c-4d0e-1f2a-3b4c5d6e7f8a,Zum Erdinger,restaurants,German restaurant in Sindelfingen.,"Sindelfingen, Baden-Württemberg",,,,,conversational,false,false,,,,,active,2025-10-29 00:00:00+00,2025-10-29 00:00:00+00,"[""stuttgart""]",,,,international,false
4d5e6f7a-8b9c-4d0e-1f2a-3b4c5d6e7f8b,Indian Restaurant Ganesha,restaurants,Indian restaurant near Grafenwöhr.,"Grafenwöhr, Bavaria",,,,,fluent,false,false,,,,,active,2025-10-29 00:00:00+00,2025-10-29 00:00:00+00,"[""grafenwoehr""]",,,,international,false
4f4f4f4f-4a4a-4b4b-4c4c-4d4d4d4d4d4d,Toom Baumarkt,shopping,Home improvement store in Kaiserslautern.,"Kaiserslautern, Rhineland-Palatinate",,,,,fluent,false,false,,,,,active,2025-10-29 00:00:00+00,2025-10-29 00:00:00+00,"[""kaiserslautern""]",,,,home-improvement,false
4f5a6b7c-8d9e-4f0a-1b2c-3d4e5f6a7b8c,Pizza Hut,restaurants,Pizza chain in Kaiserslautern.,"Kaiserslautern, Rhineland-Palatinate",,,,,fluent,false,false,,,,,active,2025-10-29 00:00:00+00,2025-10-29 00:00:00+00,"[""kaiserslautern""]",,,,american-food,false
5a5a5a5a-5b5b-4c5c-5d5d-5e5e5e5e5e5e,K in Lautern Mall,shopping,Shopping mall in Kaiserslautern.,"Kaiserslautern, Rhineland-Palatinate",,,,,fluent,false,false,,,,,active,2025-10-29 00:00:00+00,2025-10-29 00:00:00+00,"[""kaiserslautern""]",,,,malls,false
5a6b7c8d-9e0f-4a1b-2c3d-4e5f6a7b8c9d,Smash & Dash,restaurants,Burger restaurant in Kaiserslautern.,"Kaiserslautern, Rhineland-Palatinate",,,,,fluent,false,false,,,,,active,2025-10-29 00:00:00+00,2025-10-29 00:00:00+00,"[""kaiserslautern""]",,,,american-food,false
5c5c5c5c-5d5d-4e5e-5f5f-5a5a5a5a5a5a,Media Markt Stuttgart,shopping,Electronics retailer in Stuttgart area.,"Stuttgart, Baden-Württemberg",,,,,fluent,false,false,,,,,active,2025-10-29 00:00:00+00,2025-10-29 00:00:00+00,"[""stuttgart""]",,,,electronics,false
5c6d7e8f-9a0b-4c1d-2e3f-4a5b6c7d8e9f,Restaurant Seoul,restaurants,Korean restaurant near Ramstein.,"Ramstein-Miesenbach, Rhineland-Palatinate",,,,,fluent,false,false,,,,,active,2025-10-29 00:00:00+00,2025-10-29 00:00:00+00,"[""ramstein""]",,,,international,false
5e5e5e5e-5f5f-4a5a-5b5b-5c5c5c5c5c5c,Intersport Klotz,shopping,Sports goods store in Sindelfingen.,"Sindelfingen, Baden-Württemberg",,,,,conversational,false,false,,,,,active,2025-10-29 00:00:00+00,2025-10-29 00:00:00+00,"[""stuttgart""]",,,,sports,false
5e5f5a5b-5c5d-4e5f-5a5b-5c5d5e5f5a5b,Decathlon Kaiserslautern,shopping,Sports equipment and apparel.,"Kaiserslautern, Rhineland-Palatinate",,,,,fluent,false,false,,,,,active,2025-10-29 00:00:00+00,2025-10-29 00:00:00+00,"[""kaiserslautern""]",,,,sports,false
5e6f7a8b-9c0d-4e1f-2a3b-4c5d6e7f8a9b,Funzel,restaurants,Restaurant in Sindelfingen.,"Sindelfingen, Baden-Württemberg",,,,,conversational,false,false,,,,,active,2025-10-29 00:00:00+00,2025-10-29 00:00:00+00,"[""stuttgart""]",,,,international,false
5e6f7a8b-9c0d-4e1f-2a3b-4c5d6e7f8a9c,Zugstüble Zum Adler,restaurants,German restaurant near Grafenwöhr.,"Grafenwöhr, Bavaria",,,,,fluent,false,false,,,,,active,2025-10-29 00:00:00+00,2025-10-29 00:00:00+00,"[""grafenwoehr""]",,,,international,false
66276505-c810-483c-9246-b54ae40d1a3f,DEKRA Automobil GmbH Station Wittlich,automotive,Vehicle inspection near Spangdahlem Air Base.,"Wittlich, Rhineland-Palatinate",,,,,basic,false,false,,,Needs verification for English support,,pending,2025-10-24 23:09:34.792943+00,2025-10-24 23:09:34.792943+00,"[""spangdahlem""]",,,,inspection-stations,false
68db9789-9251-4631-81f6-a2a08b090086,Schlun & Elseven Rechtsanwälte,legal,"German law firm specializing in SOFA status, family law, and immigration matters for American military families.",Stuttgart,Stuttgart area,,,https://se-legal.de/,fluent,false,false,,,English-speaking German lawyers,,active,2025-10-30 23:40:37.272891+00,2025-10-31 23:03:19.455584+00,"[""stuttgart""]",,,,SOFA/Immigration,false
6a29829c-e53f-4dd2-af16-0fad11966c46,Law Office of Will M. Helixon,legal,"Military defense lawyers specializing in court-martial, SOFA issues, and military justice. Physical office in Vilseck, serves all major bases.",Ramstein,Vilseck (serves Ramstein/KMC),+49 9662 293 8047,,,fluent,false,false,,,Experienced military defense counsel,,active,2025-10-30 23:40:37.272891+00,2025-10-31 23:03:19.455584+00,"[""ramstein"",""kaiserslautern"",""grafenwoehr""]",,,,Military Defense,false
6b10ecaa-4303-4e58-918e-046382c85c6d,TÜV Rheinland Prüfstelle Kaiserslautern,automotive,TÜV inspection services for Kaiserslautern military community.,"Kaiserslautern, Rhineland-Palatinate",,,,,fluent,false,false,,,,,active,2025-10-24 23:09:34.792943+00,2025-10-25 10:30:47.375705+00,"[""kaiserslautern"",""ramstein""]",,,,inspection-stations,false
6b6b6b6b-6c6c-4d6d-6e6e-6f6f6f6f6f6f,TK Maxx Kaiserslautern,shopping,Discount department store.,"Kaiserslautern, Rhineland-Palatinate",,,,,fluent,false,false,,,,,active,2025-10-29 00:00:00+00,2025-10-29 00:00:00+00,"[""kaiserslautern""]",,,,department-stores,false
6b6c5f1c-b9ae-48d2-b863-d7e4a9009760,Hausärzte im Zentrum,healthcare,"Highly-rated general practitioner practice located in Stuttgart Mitte, known for welcoming international patients and English-speaking services.","Stuttgart, Baden-Württemberg","Rotebühlplatz 19, 70178 Stuttgart",+49 711 6648350,,https://www.hausaerzte-im-zentrum.com,fluent,true,true,,,Excellent choice for USAG Stuttgart community. Explicitly welcomes international patients.,,active,2025-10-25 23:41:54.879571+00,2025-10-25 23:46:11.252337+00,"[""stuttgart""]",,,https://maps.app.goo.gl/yMddk9M3M1v77yBq7,general-practitioners,false
6b7c8d9e-0f1a-4b2c-3d4e-5f6a7b8c9d0e,Nick's Fried Chicken,restaurants,Fried chicken restaurant in Kaiserslautern.,"Kaiserslautern, Rhineland-Palatinate",,,,,fluent,false,false,,,,,active,2025-10-29 00:00:00+00,2025-10-29 00:00:00+00,"[""kaiserslautern""]",,,,american-food,false
6d6d6d6d-6e6e-4f6f-6a6a-6b6b6b6b6b6b,Calumet Stuttgart,shopping,Photography equipment store.,"Stuttgart, Baden-Württemberg",,,,,fluent,false,false,,,,,active,2025-10-29 00:00:00+00,2025-10-29 00:00:00+00,"[""stuttgart""]",,,,specialty,false
6d7022ed-ddd1-4b59-824f-cb6f18d3a24d,Agape International Academy,education,Private Christian school serving grades K-6 in Ramstein-Miesenbach area.,Ramstein,Ramstein-Miesenbach,,,,fluent,false,false,,,"Christian school, Grades K-6",,active,2025-10-30 23:40:37.272891+00,2025-10-31 23:03:19.455584+00,"[""ramstein""]",,,,Private School,false
6d7e8f9a-0b1c-4d2e-3f4a-5b6c7d8e9f0a,Maxi Gasto GmbH,restaurants,Restaurant near Ramstein.,"Ramstein-Miesenbach, Rhineland-Palatinate",,,,,fluent,false,false,,,,,active,2025-10-29 00:00:00+00,2025-10-29 00:00:00+00,"[""ramstein""]",,,,international,false
6f6a6b6c-6d6e-4f6a-6b6c-6d6e6f6a6b6c,New Yorker,shopping,Fashion retailer.,"Kaiserslautern, Rhineland-Palatinate",,,,,fluent,false,false,,,,,active,2025-10-29 00:00:00+00,2025-10-29 00:00:00+00,"[""kaiserslautern""]",,,,clothing,false
6f6f6f6f-6a6a-4b6b-6c6c-6d6d6d6d6d6d,Müller,shopping,Drugstore and general merchandise.,"Sindelfingen, Baden-Württemberg",,,,,conversational,false,false,,,,,active,2025-10-29 00:00:00+00,2025-10-29 00:00:00+00,"[""stuttgart""]",,,,general,false
6f7a8b9c-0d1e-4f2a-3b4c-5d6e7f8a9b0c,Gustaggio Pizzaibek,restaurants,Pizza restaurant in Sindelfingen.,"Sindelfingen, Baden-Württemberg",,,,,conversational,false,false,,,,,active,2025-10-29 00:00:00+00,2025-10-29 00:00:00+00,"[""stuttgart""]",,,,international,false
6f7a8b9c-0d1e-4f2a-3b4c-5d6e7f8a9b0d,Pizzeria Santa Lucia II,restaurants,Italian restaurant near Grafenwöhr.,"Grafenwöhr, Bavaria",,,,,fluent,false,false,,,,,active,2025-10-29 00:00:00+00,2025-10-29 00:00:00+00,"[""grafenwoehr""]",,,,international,false
7390492d-d9bd-4da8-9ae7-7f938aeae462,Swiss International School Stuttgart-Fellbach,education,Swiss international school offering multilingual education in English and German.,Stuttgart,Fellbach (near Stuttgart),,,,fluent,false,false,,,Bilingual curriculum,,active,2025-10-30 23:40:37.272891+00,2025-10-31 23:03:19.455584+00,"[""stuttgart""]",,,,International School,false
7a7a7a7a-7b7b-4c7c-7d7d-7e7e7e7e7e7e,Schwaben Gallerie Mall,shopping,Shopping mall in Vaihingen.,"Vaihingen, Baden-Württemberg",,,,,fluent,false,false,,,,,active,2025-10-29 00:00:00+00,2025-10-29 00:00:00+00,"[""stuttgart""]",,,,malls,false
7a7b7c7d-7e7f-4a7b-7c7d-7e7f7a7b7c7d,Lush Cosmetics,shopping,Handmade cosmetics store.,"Kaiserslautern, Rhineland-Palatinate",,,,,fluent,false,false,,,,,active,2025-10-29 00:00:00+00,2025-10-29 00:00:00+00,"[""kaiserslautern""]",,,,beauty,false
7a8b9c0d-1e2f-4a3b-4c5d-6e7f8a9b0c1d,Mauritius,restaurants,Restaurant in Böblingen.,"Böblingen, Baden-Württemberg",,,,,conversational,false,false,,,,,active,2025-10-29 00:00:00+00,2025-10-29 00:00:00+00,"[""stuttgart""]",,,,international,false
7a8b9c0d-1e2f-4a3b-4c5d-6e7f8a9b0c1e,Restaurant Grill Beer Garden in Erstes Kulmbacher,restaurants,German beer garden restaurant near Grafenwöhr.,"Grafenwöhr, Bavaria",,,,,fluent,false,false,,,,,active,2025-10-29 00:00:00+00,2025-10-29 00:00:00+00,"[""grafenwoehr""]",,,,international,false
7c7c7c7c-7d7d-4e7e-7f7f-7a7a7a7a7a7a,Jack Wolfskin,shopping,Outdoor apparel and equipment.,"Kaiserslautern, Rhineland-Palatinate",,,,,fluent,false,false,,,,,active,2025-10-29 00:00:00+00,2025-10-29 00:00:00+00,"[""kaiserslautern""]",,,,sports,false
7c8d9e0f-1a2b-4c3d-4e5f-6a7b8c9d0e1f,Mom's Place – Roma,restaurants,Italian restaurant near Spangdahlem.,"Spangdahlem, Rhineland-Palatinate",,,,,fluent,false,false,,,,,active,2025-10-29 00:00:00+00,2025-10-29 00:00:00+00,"[""spangdahlem""]",,,,international,false
7e7e7e7e-7f7f-4a7a-7b7b-7c7c7c7c7c7c,Decathlon Stuttgart,shopping,Sports equipment and apparel.,"Stuttgart, Baden-Württemberg",,,,,fluent,false,false,,,,,active,2025-10-29 00:00:00+00,2025-10-29 00:00:00+00,"[""stuttgart""]",,,,sports,false
7e8f9a0b-1c2d-4e3f-4a5b-6c7d8e9f0a1b,Hacienda Mexican Restaurant,restaurants,Mexican restaurant in Kaiserslautern.,"Kaiserslautern, Rhineland-Palatinate",,,,,fluent,false,false,,,,,active,2025-10-29 00:00:00+00,2025-10-29 00:00:00+00,"[""kaiserslautern""]",,,,international,false
83157f09-869e-4e67-9f54-9d1ea0c89ebb,Used Car Guys,automotive,Founded January 2012. Quality used cars for military families. English-speaking staff. Delivery to any base in Germany. Active on social media.,Spangdahlem,Spangdahlem area,+49 172 7129046,,,fluent,false,false,,,"WhatsApp contact, delivers to any base",,active,2025-10-30 23:40:37.272891+00,2025-10-31 23:03:19.455584+00,"[""spangdahlem""]",,,,Car Sales,false
83450d8f-14d1-43f3-947b-eb54caee8fe5,Doctorsa.com,healthcare,Online medical consultations available throughout Germany. Telemedicine services in English.,Online - Germany-wide,,,,https://www.doctorsa.com,fluent,false,false,,,,,active,2025-10-24 23:09:34.792943+00,2025-10-25 10:30:47.375705+00,"[""stuttgart"",""ramstein"",""kaiserslautern"",""wiesbaden"",""grafenwoehr"",""spangdahlem""]",,,,general-practitioners,false
85ec61e3-1102-4d44-9bbc-fab026f5a122,Das Haut Lazer Centrum,healthcare,Dermatology and laser center serving English-speaking patients near Grafenwöhr.,Altenstadt,"Haidmühlweg 7, 92665 Altenstadt an der Waldnaab",+49 9602 616311,info@haut-laserzentrum.info,,fluent,false,false,,,English-speaking dermatology,,active,2025-10-30 23:40:37.272891+00,2025-10-31 23:03:19.455584+00,"[""grafenwoehr""]",,,,Dermatology,false
86870525-4bb1-461a-8e8c-4e6fd8ea40ae,KFZ Rupprecht Auto Repair,automotive,"Local mechanic right outside Gate 6, popular with military community.","Grafenwöhr, Bavaria",,,,,conversational,false,false,,,,,active,2025-10-24 23:09:34.792943+00,2025-10-25 10:30:47.375705+00,"[""grafenwoehr""]",,,,mechanics,false
875a9415-4ca0-4558-ab45-2faa743fdaf7,GTÜ Böblingen,automotive,Official vehicle inspection station serving Stuttgart military community.,"Böblingen, Baden-Württemberg",,,,,conversational,true,true,,,,,active,2025-10-24 23:09:34.792943+00,2025-10-25 23:22:17.531938+00,"[""stuttgart""]",,,,inspection-stations,false
8b8b8b8b-8c8c-4d8d-8e8e-8f8f8f8f8f8f,Milaneo Stuttgart,shopping,Large shopping center in Stuttgart.,"Stuttgart, Baden-Württemberg",,,,,fluent,false,false,,,,,active,2025-10-29 00:00:00+00,2025-10-29 00:00:00+00,"[""stuttgart""]",,,,malls,false
8b8c8d8e-8f8a-4b8c-8d8e-8f8a8b8c8d8e,Tedi Grafenwöhr,shopping,Discount variety store.,"Grafenwöhr, Bavaria",,,,,fluent,false,false,,,,,active,2025-10-29 00:00:00+00,2025-10-29 00:00:00+00,"[""grafenwoehr""]",,,,general,false
8b9c0d1e-2f3a-4b4c-5d6e-7f8a9b0c1d2e,Brauhaus Schönbuch,restaurants,German brewhouse in Böblingen.,"Böblingen, Baden-Württemberg",,,,,conversational,false,false,,,,,active,2025-10-29 00:00:00+00,2025-10-29 00:00:00+00,"[""stuttgart""]",,,,international,false
8b9c0d1e-2f3a-4b4c-5d6e-7f8a9b0c1d2f,Pho Viet Grafenwöhr,restaurants,Vietnamese restaurant near Grafenwöhr.,"Grafenwöhr, Bavaria",,,,,fluent,false,false,,,,,active,2025-10-29 00:00:00+00,2025-10-29 00:00:00+00,"[""grafenwoehr""]",,,,international,false
8bed3b45-309d-4207-9084-ce954b2ef2bc,English-Speaking Doctor Needed - Spangdahlem,healthcare,Know a great English-speaking doctor in the Spangdahlem area? Help us out!,"Spangdahlem, Rhineland-Palatinate",,,,,fluent,false,false,,,PRIORITY: Seeking recommendations for English-speaking medical care,,pending,2025-10-24 23:09:34.792943+00,2025-10-24 23:09:34.792943+00,"[""spangdahlem""]",,,,general-practitioners,false
8d8d8d8d-8e8e-4f8f-8a8a-8b8b8b8b8b8b,Ernsting's Family,shopping,Family fashion retailer.,"Kaiserslautern, Rhineland-Palatinate",,,,,fluent,false,false,,,,,active,2025-10-29 00:00:00+00,2025-10-29 00:00:00+00,"[""kaiserslautern""]",,,,clothing,false
8d9e0f1a-2b3c-4d4e-5f6a-7b8c9d0e1f2a,Burg bistro Bella Vista,restaurants,Bistro near Spangdahlem.,"Spangdahlem, Rhineland-Palatinate",,,,,fluent,false,false,,,,,active,2025-10-29 00:00:00+00,2025-10-29 00:00:00+00,"[""spangdahlem""]",,,,international,false
8f8f8f8f-8a8a-4b8b-8c8c-8d8d8d8d8d8d,C and A Stuttgart,shopping,Fashion retailer in Stuttgart.,"Stuttgart, Baden-Württemberg",,,,,fluent,false,false,,,,,active,2025-10-29 00:00:00+00,2025-10-29 00:00:00+00,"[""stuttgart""]",,,,clothing,false
8f9a0b1c-2d3e-4f4a-5b6c-7d8e9f0a1b2c,Zimtblüte Sushi Restaurant,restaurants,Sushi restaurant in Kaiserslautern.,"Kaiserslautern, Rhineland-Palatinate",,,,,fluent,false,false,,,,,active,2025-10-29 00:00:00+00,2025-10-29 00:00:00+00,"[""kaiserslautern""]",,,,international,false
94a66be0-d913-4222-865e-8a958b02e1d3,International School of Stuttgart,education,Private international school with English curriculum. Two campuses in Stuttgart area.,Stuttgart,Campuses in Degerloch and Sindelfingen,,,https://www.isstuttgart.de/,fluent,false,false,,,"Ages 3-18, IB curriculum",,active,2025-10-30 23:40:37.272891+00,2025-10-31 23:03:19.455584+00,"[""stuttgart""]",,,,International School,false
95d6833e-eed8-4a75-841f-e9177b5913d2,Auto Detailing Service Needed - Ramstein,automotive,Know a great English-speaking auto detailer in the Ramstein area? Help us out!,"Ramstein-Miesenbach, Rhineland-Palatinate",,,,,fluent,false,false,,,Seeking community recommendations for auto detailing services,,pending,2025-10-24 23:09:34.792943+00,2025-10-24 23:09:34.792943+00,"[""ramstein""]",,,,mechanics,false
9704228f-b149-4dfb-8912-e54eb5956418,International School Kaiserslautern,education,"Run by SBW Haus des Lernens (Swiss). English instruction with German secondary focus. Estimated tuition 800-1,000 euros/month per child.",Kaiserslautern,Kaiserslautern area,,,,fluent,false,false,,,"Swiss-operated, English/German bilingual",,active,2025-10-30 23:40:37.272891+00,2025-10-31 23:03:19.455584+00,"[""kaiserslautern"",""ramstein""]",,,,International School,false
97f5471c-0217-448e-80cb-e367e1e83a24,Glanzzeit Autoaufbereitung,automotive,Premium auto detailing and paint correction services.,"Schönaich, Baden-Württemberg",,,,,conversational,false,false,,,,,active,2025-10-24 23:09:34.792943+00,2025-10-25 10:30:47.375705+00,"[""stuttgart""]",,,,mechanics,false
9a0b1c2d-3e4f-4a5b-6c7d-8e9f0a1b2c3d,Chacarero Steakhouse,restaurants,Steakhouse in Kaiserslautern.,"Kaiserslautern, Rhineland-Palatinate",,,,,fluent,false,false,,,,,active,2025-10-29 00:00:00+00,2025-10-29 00:00:00+00,"[""kaiserslautern""]",,,,international,false
9a9a9a9a-9b9b-4c9c-9d9d-9e9e9e9e9e9e,H & M Stuttgart,shopping,Fashion retailer in Stuttgart.,"Stuttgart, Baden-Württemberg",,,,,fluent,false,false,,,,,active,2025-10-29 00:00:00+00,2025-10-29 00:00:00+00,"[""stuttgart""]",,,,clothing,false
9c0d1e2f-3a4b-4c5d-6e7f-8a9b0c1d2e3f,Chin-Thai,restaurants,Thai restaurant in Böblingen.,"Böblingen, Baden-Württemberg",,,,,conversational,false,false,,,,,active,2025-10-29 00:00:00+00,2025-10-29 00:00:00+00,"[""stuttgart""]",,,,international,false
9c9d9e9f-9a9b-4c9d-9e9f-9a9b9c9d9e9f,Get Fit Grafenwöhr,shopping,Fitness equipment and supplements.,"Grafenwöhr, Bavaria",,,,,fluent,false,false,,,,,active,2025-10-29 00:00:00+00,2025-10-29 00:00:00+00,"[""grafenwoehr""]",,,,sports,false
9e0f1a2b-3c4d-4e5f-6a7b-8c9d0e1f2a3b,Restaurant Torschiänke,restaurants,Restaurant near Spangdahlem.,"Spangdahlem, Rhineland-Palatinate",,,,,fluent,false,false,,,,,active,2025-10-29 00:00:00+00,2025-10-29 00:00:00+00,"[""spangdahlem""]",,,,international,false
9e9e9e9e-9f9f-4a9a-9b9b-9c9c9c9c9c9c,Ikea Kaiserslautern,shopping,Furniture and home goods store.,"Kaiserslautern, Rhineland-Palatinate",,,,,fluent,false,false,,,,,active,2025-10-29 00:00:00+00,2025-10-29 00:00:00+00,"[""kaiserslautern""]",,,,furniture,false
a1b2c3d4-e5f6-4a8b-9c0d-1e2f3a4b5c6d,SÜD Service Center Sindelfingen,automotive,TÜV inspection and vehicle services in Sindelfingen.,"Sindelfingen, Baden-Württemberg",,,,,conversational,false,false,,,Official TÜV inspection station,,active,2025-10-29 00:00:00+00,2025-10-29 00:00:00+00,"[""stuttgart""]",,,,inspection-stations,false
a1b2c3d4-e5f6-4a8b-9c0d-1e2f3a4b5c6e,Wine Kult,restaurants,Wine bar and restaurant in Sindelfingen.,"Sindelfingen, Baden-Württemberg",,,,,conversational,false,false,,,Wine bar and dining,,active,2025-10-29 00:00:00+00,2025-10-29 00:00:00+00,"[""stuttgart""]",,,,international,false
a3b4c5d6-e7f8-4a0b-1c2d-3e4f5a6b7c8d,Car Cosmetic Schönaich,automotive,Professional auto detailing services near Stuttgart.,"Schönaich, Baden-Württemberg",,,,,conversational,false,false,,,Auto detailing specialist,,active,2025-10-29 00:00:00+00,2025-10-29 00:00:00+00,"[""stuttgart""]",,,,mechanics,false
ab9aebd8-0eb7-4d73-8e25-477587e3dd01,"Law Office of Peter Kageleiry, Jr.",legal,Military lawyer serving USAG Kaiserslautern. Specializes in court-martial and Article 120 cases.,Kaiserslautern,Kaiserslautern area,,,,fluent,false,false,,,Military criminal defense,,active,2025-10-30 23:40:37.272891+00,2025-10-31 23:03:19.455584+00,"[""ramstein"",""kaiserslautern""]",,,,Military Defense,false
ac35f02c-3b60-4532-afb6-ebc86c5d290d,Autoservice Müller,automotive,Free and independent specialist workshop offering comprehensive automotive services. Family-run automotive master workshop with mobility guarantee.,"Steinenbronn, Baden-Württemberg","Im Maurer 12, 71144 Steinenbronn",+49 7157 880771,info@autoservice-bei-mueller.de,https://www.autoservice-bei-mueller.de,fluent,true,true,,9.2km ffrom Panzer Main Gate,3rd generation Master Mechanic,,active,2025-10-26 13:05:34.967908+00,2025-10-29 21:43:05.527331+00,"[""stuttgart""]",48.68330000,9.11670000,"https://maps.google.com/?q=48.6833,9.1167",mechanics,false
b0c1d2e3-f4a5-4b7c-8d9e-0f1a2b3c4d5e,Orlando Autoservice GbR Schönaich,automotive,Paint and body repair services near Stuttgart.,"Schönaich, Baden-Württemberg",,,,,basic,false,false,,,Professional body shop,,active,2025-10-29 00:00:00+00,2025-10-29 20:03:31.154347+00,"[""stuttgart""]",,,,mechanics,false
b2c3d4e5-f6a7-4b9c-0d1e-2f3a4b5c6d7e,GTÜ Kfz-Prüfstelle Ramstein,automotive,Vehicle inspection station serving Ramstein Air Base.,"Ramstein, Rhineland-Palatinate",,,,,fluent,false,false,,,TÜV services for military community,,active,2025-10-29 00:00:00+00,2025-10-29 00:00:00+00,"[""ramstein""]",,,,inspection-stations,false
b6c7d8e9-f0a1-4b3c-4d5e-6f7a8b9c0d1e,Ärzte Team42 Böblingen,healthcare,General practice medical office serving Stuttgart area.,"Böblingen, Baden-Württemberg","Poststraße 42, 71032 Böblingen",+49 07031 234545,boeblingen@aerzte42.de,https://www.aerzte42.de/,conversational,true,false,,"2,6km from Panzer Main Gate",GP practice,,active,2025-10-29 00:00:00+00,2025-10-29 21:52:06.167261+00,"[""stuttgart""]",48.68212000,9.01170000,"Poststraße 42, 71032 Böblingen",general-practitioners,false
b8c9d0e1-f2a3-4b5c-6d7e-8f9a0b1c2d3e,Military Car Service Dom,automotive,English-speaking mechanic in Weil im Schönbuch serving Stuttgart area.,"Weil im Schönbuch, Baden-Württemberg",,,,,fluent,false,false,,,Full service mechanic,,active,2025-10-29 00:00:00+00,2025-10-29 00:00:00+00,"[""stuttgart""]",,,,mechanics,false
b9135f54-3e7e-49e1-9d66-053d1eaffe4f,Faith Baptist School,education,Private Baptist school with preschool through grade 8 in Kaiserslautern.,Kaiserslautern,Kaiserslautern,,,,fluent,false,false,,,"Baptist school, Preschool-Grade 8",,active,2025-10-30 23:40:37.272891+00,2025-10-31 23:03:19.455584+00,"[""kaiserslautern"",""ramstein""]",,,,Private School,false
b9e1469d-faeb-44e2-b2ca-624f113880c6,TÜV SÜD Service-Center Sindelfingen,automotive,Official TÜV inspection station in Sindelfingen.,"Sindelfingen, Baden-Württemberg",,,,,conversational,false,false,,,,,active,2025-10-24 23:09:34.792943+00,2025-10-25 10:30:47.375705+00,"[""stuttgart""]",,,,inspection-stations,false
bb9f788c-36b3-4dc6-a7bf-208f56e8b6dd,Christian Learning Academy,education,Private Christian school serving grades K-8 in Mackenbach.,Mackenbach,Mackenbach,,,,fluent,false,false,,,"Christian school, Grades K-8",,active,2025-10-30 23:40:37.272891+00,2025-10-31 23:03:19.455584+00,"[""ramstein"",""kaiserslautern""]",,,,Private School,false
bc04b678-b2ef-4899-a9fc-9b2ced345fc6,Praxis Dr. Käfer - Kaiserslautern,healthcare,General practitioner and private internal medicine practice. They welcome patients with US/foreign health insurance in their Kaiserslautern office.,"Kaiserslautern, Rhineland-Palatinate","Brüsseler Straße 7, 67657 Kaiserslautern",+49 631 34377600,,https://www.rwz-kaefer.de/our-practices?lang=en,fluent,true,false,,,Private practice location is in Kaiserslautern; accepts US health insurance.,,active,2025-10-25 23:41:30.513523+00,2025-10-29 19:31:58.438977+00,"[""kaiserslautern""]",,,https://maps.app.goo.gl/9n2B5G4G6H7J8K9L0,general-practitioners,false
c1d2e3f4-a5b6-4c8d-9e0f-1a2b3c4d5e6f,Urad Car Guys Service Center - Paint & Body,automotive,English-speaking paint and body repairs serving Ramstein and Kaiserslautern.,"Ramstein-Kaiserslautern area, Rhineland-Palatinate",,,,https://www.usedcarguys.net,fluent,false,false,,,Paint and body work specialist,,active,2025-10-29 00:00:00+00,2025-10-29 00:00:00+00,"[""ramstein"",""kaiserslautern""]",,,,mechanics,false
c5d6e7f8-a9b0-4c2d-3e4f-5a6b7c8d9e0f,English-Speaking Auto Detailer - Wiesbaden,automotive,English-speaking auto detailer serving Wiesbaden military families.,"Wiesbaden, Hesse",,,,,fluent,false,false,,,Seeking verified detailer,,pending,2025-10-29 00:00:00+00,2025-10-29 00:00:00+00,"[""wiesbaden""]",,,,mechanics,false
c7d8e9f0-a1b2-4c4d-5e6f-7a8b9c0d1e2f,English-Speaking Doctor - Grafenwöhr,healthcare,English-speaking doctor serving Grafenwöhr military community.,"Grafenwöhr, Bavaria",,,,,fluent,false,false,,,Seeking verified GP,,pending,2025-10-29 00:00:00+00,2025-10-29 00:00:00+00,"[""grafenwoehr""]",,,,general-practitioners,false
caf8f194-8752-4653-81c1-d4fd0cb6e084,HousingOffice.com,real-estate,Established housing service with 20+ years serving U.S. military families in KMC area.,Kaiserslautern,Kaiserslautern area,,,https://housingoffice.com/,fluent,false,false,,,Specializes in military relocations,,active,2025-10-30 23:40:37.272891+00,2025-10-31 23:03:19.455584+00,"[""ramstein"",""kaiserslautern""]",,,,Housing Agency,false
cb567556-c2b6-4542-a218-0c84034c84b6,Pretty Hair,personal-services,Hair salon in Grafenwöhr serving English-speaking clients.,Grafenwöhr,"Richard-Wagner-Straße 3, 92655 Grafenwöhr",096412945,,,fluent,false,false,,,English-speaking available,,active,2025-10-30 23:40:37.272891+00,2025-10-31 23:03:19.455584+00,"[""grafenwoehr""]",,,,Hair Salon,false
ccc4d516-8198-48ff-8d85-e8f77a3e0327,Stuttgart Expats Tax Services,business,Tax consultancy specifically for English-speaking expats and military families in Stuttgart area.,Stuttgart,Stuttgart area,,,https://stuttgartexpats.com/,fluent,false,false,,,Listed on Stuttgart Expats directory,,active,2025-10-30 23:40:37.272891+00,2025-10-31 23:03:19.455584+00,"[""stuttgart""]",,,,Tax Advisory,false
ce6f2942-5d7a-474d-b42c-78f8e99a3ded,Need Verified GP - Spangdahlem,healthcare,"Seeking a verified, off-base English-speaking general practitioner near Spangdahlem Air Base.","Spangdahlem, Rhineland-Palatinate",,,,,fluent,false,false,,,PRIORITY: Need verified English-speaking GP for Spangdahlem area.,,pending,2025-10-25 23:41:30.513523+00,2025-10-25 23:46:32.701363+00,"[""spangdahlem""]",,,,general-practitioners,false
cfd7525e-6ec4-46a8-a466-2d90d1aa5938,TLA Office,real-estate,"Temporary lodging assistance for military personnel. Fully furnished apartments, pet-friendly options.",Kaiserslautern,Kaiserslautern area,,,https://tla-office.com/,fluent,false,false,,,Short-term furnished housing for PCS,,active,2025-10-30 23:40:37.272891+00,2025-10-31 23:03:19.455584+00,"[""ramstein"",""kaiserslautern""]",,,,Temporary Lodging,false
d0e1f2a3-b4c5-4d7e-8f9a-0b1c2d3e4f5a,Need English-Speaking Mechanic - Wiesbaden,automotive,Know a great English-speaking mechanic in the Wiesbaden area? Help us out!,"Wiesbaden, Hesse",,,,,fluent,false,false,,,Seeking community recommendations,,pending,2025-10-29 00:00:00+00,2025-10-29 00:00:00+00,"[""wiesbaden""]",,,,mechanics,false
d2e3f4a5-b6c7-4d9e-0f1a-2b3c4d5e6f7a,English-Speaking Paint & Body - Grafenwöhr,automotive,English-speaking paint and body repair shop near Grafenwöhr.,"Grafenwöhr, Bavaria",,,,,fluent,false,false,,,Seeking verified shop,,pending,2025-10-29 00:00:00+00,2025-10-29 00:00:00+00,"[""grafenwoehr""]",,,,mechanics,false
d4e5f6a7-b8c9-4d1e-2f3a-4b5c6d7e8f9a,TÜV Hessen Service Center Wiesbaden,automotive,Official TÜV inspection serving USAG Wiesbaden.,"Wiesbaden, Hesse",,,,,conversational,false,false,,,Vehicle inspection services,,active,2025-10-29 00:00:00+00,2025-10-29 00:00:00+00,"[""wiesbaden""]",,,,inspection-stations,false
d6e7f8a9-b0c1-4d3e-4f5a-6b7c8d9e0f1a,English-Speaking Auto Detailer - Kaiserslautern,automotive,English-speaking auto detailer serving Kaiserslautern area.,"Kaiserslautern, Rhineland-Palatinate",,,,,fluent,false,false,,,Seeking verified detailer,,pending,2025-10-29 00:00:00+00,2025-10-29 00:00:00+00,"[""kaiserslautern""]",,,,mechanics,false
d8e9f0a1-b2c3-4d5e-6f7a-8b9c0d1e2f3a,English-Speaking Doctor - Spangdahlem,healthcare,English-speaking doctor near Spangdahlem Air Base.,"Spangdahlem, Rhineland-Palatinate",,,,,fluent,false,false,,,Seeking verified GP,,pending,2025-10-29 00:00:00+00,2025-10-29 00:00:00+00,"[""spangdahlem""]",,,,general-practitioners,false
da2bb5b4-d72d-443d-89d6-ac4d7f9bdd8f,The Used Car Guys - Ramstein,automotive,Full-service used car dealership and service center for Ramstein community.,"Ramstein-Miesenbach, Rhineland-Palatinate","Ludwig-Erhard Strasse 8, 66877 Ramstein",+49 173 765 6926,ramstein@usedcarguys.net,https://www.usedcarguys.net,fluent,false,true,,,,,active,2025-10-25 09:49:32.428026+00,2025-10-26 13:05:34.967908+00,"[""ramstein"",""wiesbaden""]",49.43940000,7.56140000,"https://maps.google.com/?q=49.4394,7.5614",car-dealerships,false
db125709-7219-4ede-a9f5-0c3e916f3dab,ImmoMorton (Home Sweet Home Real Estates),real-estate,"Run by Annette Morton. Residential and commercial property brokerage serving Grafenwöhr, Vilseck, Amberg-Sulzbach, and Weiden areas.",Grafenwöhr,"Grafenwöhr, Vilseck, Amberg-Sulzbach, Weiden",,,,fluent,false,false,,,Serves USAG Bavaria communities,,active,2025-10-30 23:40:37.272891+00,2025-10-31 23:03:19.455584+00,"[""grafenwoehr""]",,,,Housing Agency,false
e0d7cf5c-bf02-4fe1-8721-84271fd1822a,Auto Detailing Service Needed - Spangdahlem,automotive,Know a great English-speaking auto detailer in the Spangdahlem area? Help us out!,"Spangdahlem, Rhineland-Palatinate",,,,,fluent,false,false,,,Seeking community recommendations for auto detailing services,,pending,2025-10-24 23:09:34.792943+00,2025-10-24 23:09:34.792943+00,"[""spangdahlem""]",,,,mechanics,false
e1f2a3b4-c5d6-4e8f-9a0b-1c2d3e4f5a6b,Need English-Speaking Mechanic - Spangdahlem,automotive,Know a great English-speaking mechanic in the Spangdahlem area? Help us out!,"Spangdahlem, Rhineland-Palatinate",,,,,fluent,false,false,,,Seeking community recommendations,,pending,2025-10-29 00:00:00+00,2025-10-29 00:00:00+00,"[""spangdahlem""]",,,,mechanics,false
e3f4a5b6-c7d8-4e0f-1a2b-3c4d5e6f7a8b,English-Speaking Paint & Body - Spangdahlem,automotive,English-speaking paint and body repair near Spangdahlem Air Base.,"Spangdahlem, Rhineland-Palatinate",,,,,fluent,false,false,,,Seeking verified shop,,pending,2025-10-29 00:00:00+00,2025-10-29 00:00:00+00,"[""spangdahlem""]",,,,mechanics,false
e7f8a9b0-c1d2-4e4f-5a6b-7c8d9e0f1a2b,English-Speaking Auto Detailer - Spangdahlem,automotive,English-speaking auto detailer near Spangdahlem Air Base.,"Spangdahlem, Rhineland-Palatinate",,,,,fluent,false,false,,,Seeking verified detailer,,pending,2025-10-29 00:00:00+00,2025-10-29 00:00:00+00,"[""spangdahlem""]",,,,mechanics,false
e8d16894-48a4-4e91-b896-5f81052ee19f,English-Speaking Doctor Needed - Grafenwöhr,healthcare,Know a great English-speaking doctor in the Grafenwöhr area? Help us out!,"Grafenwöhr, Bavaria",,,,,fluent,false,false,,,PRIORITY: Seeking recommendations for English-speaking medical care,,pending,2025-10-24 23:09:34.792943+00,2025-10-24 23:09:34.792943+00,"[""grafenwoehr""]",,,,general-practitioners,false
e9f0a1b2-c3d4-4e6f-7a8b-9c0d1e2f3a4b,English-Speaking Doctor - Wiesbaden,healthcare,English-speaking doctor serving USAG Wiesbaden.,"Wiesbaden, Hesse",,,,,fluent,false,false,,,Seeking verified GP,,pending,2025-10-29 00:00:00+00,2025-10-29 00:00:00+00,"[""wiesbaden""]",,,,general-practitioners,false
edf40a5d-ff54-4efe-b2cc-a9f06fccd1ce,The Used Car Guys - Grafenwöhr,automotive,Quality used vehicles for Grafenwöhr military community.,"Grafenwöhr, Bavaria","Diessfurter Strasse 18, 92655 Grafenwöhr",+49 1511 580 6354,sam@usedcarguys.net,https://www.usedcarguys.net,fluent,true,true,,,,,active,2025-10-25 10:31:10.902141+00,2025-10-26 13:05:34.967908+00,"[""grafenwoehr""]",49.71750000,11.90890000,"https://maps.google.com/?q=49.7175,11.9089",car-dealerships,false
ef7b484d-9fdb-4b00-811e-bf4a4fd7f230,The Used Car Guys - Kaiserslautern,automotive,Full-service used car dealership for Kaiserslautern military community.,"Kaiserslautern, Rhineland-Palatinate","WeilerbacherStr 110, 67661 Kaiserslautern",0631 680 31 210,kaiserslautern@usedcarguys.net,https://www.usedcarguys.net,fluent,true,true,,,,,active,2025-10-25 10:31:10.902141+00,2025-10-26 13:05:34.967908+00,"[""kaiserslautern"",""wiesbaden""]",49.45210000,7.73530000,"https://maps.google.com/?q=49.4521,7.7353",car-dealerships,false
f00dbd04-419a-4685-99e4-7b97d07528a4,Pervin Estates,real-estate,Official housing referral contractor for USAG Stuttgart. Helps military families find off-base housing.,Stuttgart,Stuttgart area,,,,fluent,false,false,,,Works directly with USAG Stuttgart Housing Office,,active,2025-10-30 23:40:37.272891+00,2025-10-31 23:03:19.455584+00,"[""stuttgart""]",,,,Housing Referral,false
f08eed0a-9164-4be5-b673-7f9e40d0771a,École Française de Stuttgart,education,French international school with English programs available.,Stuttgart,Stuttgart area,,,,fluent,false,false,,,French/English curriculum,,active,2025-10-30 23:40:37.272891+00,2025-10-31 23:03:19.455584+00,"[""stuttgart""]",,,,International School,false
f0a1b2c3-d4e5-4f7a-8b9c-0d1e2f3a4b5c,The Auld Rogue,restaurants,Authentic Irish pub with English-speaking staff and familiar international cuisine.,"Vaihingen, Baden-Württemberg",,,,https://www.theauldrogue.com/,fluent,true,true,,,Popular with Stuttgart military community,,active,2025-10-29 00:00:00+00,2025-10-29 20:11:51.93103+00,"[""stuttgart""]",,,,international,false
f23b7335-c9e7-4b28-952e-5f5e405d075d,EXPATTAX,business,English-speaking tax consultants specializing in expat and military family taxation. Handles German and US tax matters.,Stuttgart,Stuttgart area,,,https://expattax.de/,fluent,false,false,,,Bilingual US/German tax experts,,active,2025-10-30 23:40:37.272891+00,2025-10-31 23:03:19.455584+00,"[""stuttgart""]",,,,Tax Advisory,false
f2a3b4c5-d6e7-4f9a-0b1c-2d3e4f5a6b7c,Need English-Speaking Mechanic - Grafenwöhr,automotive,Know a great English-speaking mechanic in the Grafenwöhr area? Help us out!,"Grafenwöhr, Bavaria",,,,,fluent,false,false,,,Seeking community recommendations,,pending,2025-10-29 00:00:00+00,2025-10-29 00:00:00+00,"[""grafenwoehr""]",,,,mechanics,false
f4a5b6c7-d8e9-4f1a-2b3c-4d5e6f7a8b9c,English-Speaking Paint & Body - Wiesbaden,automotive,English-speaking paint and body repair serving Wiesbaden area.,"Wiesbaden, Hesse",,,,,fluent,false,false,,,Seeking verified shop,,pending,2025-10-29 00:00:00+00,2025-10-29 00:00:00+00,"[""wiesbaden""]",,,,mechanics,false
f8a9b0c1-d2e3-4f5a-6b7c-8d9e0f1a2b3c,English-Speaking Auto Detailer - Grafenwöhr,automotive,English-speaking auto detailer serving Grafenwöhr military community.,"Grafenwöhr, Bavaria",,,,,fluent,false,false,,,Seeking verified detailer,,pending,2025-10-29 00:00:00+00,2025-10-29 00:00:00+00,"[""grafenwoehr""]",,,,mechanics,false
fd3d4354-c128-40a6-b2dc-b2aa66b7cd76,Orthopädie und Unfallchirurgie Sindelfingen,healthcare,Orthopedic and trauma surgery practice serving Stuttgart community.,"Sindelfingen, Baden-Württemberg","Planiestraße 6, 71063 Sindelfingen",07031 2090018,info@orthopaediesindelfingen.de,https://www.orthopaediesindelfingen.de,conversational,false,false,,,,,active,2025-10-24 23:09:34.792943+00,2025-10-26 13:05:34.967908+00,"[""stuttgart""]",48.71410000,9.00010000,"https://maps.google.com/?q=48.7141,9.0001",specialists,false
ff3dedbb-1e1b-407d-a5b7-11a18e5e92b2,Dr. Tobias Riedl,healthcare,OB/GYN practice in Amberg serving English-speaking patients near Grafenwöhr.,Amberg,"Roßmarkt 13, 92224 Amberg",+49 9621 23915,info@dr-riedl.com,,fluent,false,false,,,English-speaking OB/GYN,,active,2025-10-30 23:40:37.272891+00,2025-10-31 23:03:19.455584+00,"[""grafenwoehr""]",,,,OBGYN,false